RADARSAT-2              
1 32382U 07061A   26227.51305897  .00000066  00000+0  42455-4 0  9994
2 32382  98.5798 233.6036 0001279  82.0633 278.0694 14.29981628974433
RCM-1                   
1 44322U 19033A   26227.48704500  .00000120  00000+0  17133-4 0  9999
2 44322  97.7609 234.0974 0001536  91.5336  31.0280 14.92590516390925
RCM-2                   
1 44324U 19033C   26227.50906778  .00000492  00000+0  53284-4 0  9994
2 44324  97.7609 234.1638 0001502  90.6043 269.5348 14.92590706390938
RCM-3                   
1 44323U 19033B   26227.48686149  .00000009  00000+0  63201-5 0  9992
2 44323  97.7604 234.1916 0001529  91.7327 268.4068 14.92587564390943
SAPPHIRE                
1 39088U 13009C   26227.48898468  .00000010  00000+0  18593-4 0  9995
2 39088  98.4297  45.5487 0012374  74.3321 285.9229 14.35254058705083
NEOSSAT                 
1 39089U 13009D   26227.44268169  .00000048  00000+0  31476-4 0  9997
2 39089  98.4212  46.0781 0012185  72.0631 288.1883 14.35844110705246
SCISAT 1                
1 27858U 03036A   26226.97516539  .00000267  00000+0  38709-4 0  9990
2 27858  73.9288  54.5312 0006147 107.9620 252.2227 14.81507789240156
ANIK F2                 
1 28378U 04027A   26227.47263302 -.00000063  00000+0  00000+0 0  9995
2 28378   3.4368  78.6535 0003292  57.9577 246.2972  1.00271806 41859
ANIK F3                 
1 31102U 07009A   26227.47405832 -.00000014  00000+0  00000+0 0  9999
2 31102   1.3464  83.0948 0002603  55.7197 237.0042  1.00271024 47156
